0 MINOTAUR R/B
1 26066U 00004F   13282.38681330  .00000112  00000-0  57312-4 0  1822
2 26066 100.1935 027.5311 0033974 126.3700 275.4083 14.37109445718457
0 MINOTAUR R/B
1 26066U 00004F   13283.86146806  .00000108  00000-0  55731-4 0  1839
2 26066 100.1938 029.2753 0034033 122.2513 344.6291 14.37110144718664
0 MINOTAUR R/B
1 26066U 00004F   13286.15070365  .00000137  00000-0  65556-4 0  1850
2 26066 100.1943 031.9834 0034083 115.8949 308.1080 14.37110946718993
0 MINOTAUR R/B
1 26066U 00004F   13287.39953440  .00000158  00000-0  72456-4 0  1862
2 26066 100.1945 033.4608 0034070 112.4440 288.9840 14.37111387719176
0 MINOTAUR R/B
1 26066U 00004F   13288.87442491  .00000202  00000-0  87152-4 0  1875
2 26066 100.1946 035.2057 0034041 108.3501 359.4119 14.37112202719388
0 MINOTAUR R/B
1 26066U 00004F   13290.18822693  .00000178  00000-0  79132-4 0  1880
2 26066 100.1945 036.7601 0034029 104.7227 316.4233 14.37113030719570
0 MINOTAUR R/B
1 26066U 00004F   13291.36893234  .00000190  00000-0  83059-4 0  1898
2 26066 100.1944 038.1570 0033999 101.4424 304.8777 14.37113599719741
0 MINOTAUR R/B
1 26066U 00004F   13292.85155447  .00000221  00000-0  93735-4 0  1909
2 26066 100.1943 039.9111 0034020 097.3462 055.2977 14.37114321719957
0 MINOTAUR R/B
1 26066U 00004F   13294.15780245  .00000207  00000-0  88812-4 0  1919
2 26066 100.1942 041.4566 0034028 093.7216 333.2561 14.37115166720142
0 MINOTAUR R/B
1 26066U 00004F   13295.20091620  .00000197  00000-0  85518-4 0  1927
2 26066 100.1942 042.6906 0034034 090.8394 329.8622 14.37115658720296
